ONEWEB-0033             
1 45142U 20008M   24162.12663474  .00000697  00000+0  19615-2 0  9999
2 45142  87.8934 182.8489 0002131  84.7180 275.4190 13.10371956212584
ONEWEB-0035             
1 45143U 20008N   24161.77635682 -.00000583  00000+0 -17066-2 0  9994
2 45143  87.8940 182.8991 0002134  89.5611 270.5761 13.10373229211365
ONEWEB-0036             
1 45144U 20008P   24162.14818829 -.00000133  00000+0 -41672-3 0  9995
2 45144  87.8933 182.7831 0001953  95.9649 264.1701 13.10368929212703
ONEWEB-0038             
1 45145U 20008Q   24161.74858337 -.00000329  00000+0 -96290-3 0  9992
2 45145  87.8961 167.7924 0002681 102.1838 257.9590 13.11417710213678
ONEWEB-0039             
1 45146U 20008R   24162.12996903  .00000722  00000+0  20321-2 0  9994
2 45146  87.8936 182.8040 0001968 104.8639 255.2706 13.10372094212418
ONEWEB-0040             
1 45147U 20008S   24162.12331450  .00000726  00000+0  20429-2 0  9998
2 45147  87.8944 182.8064 0002097  92.9480 267.1887 13.10372332212124
ONEWEB-0043             
1 45149U 20008U   24161.81954355  .00000722  00000+0  20306-2 0  9990
2 45149  87.8938 182.8737 0001929 106.3235 253.8104 13.10371882211613
ONEWEB-0044             
1 45150U 20008V   24161.77138140 -.00000505  00000+0 -14838-2 0  9997
2 45150  87.8934 182.8788 0001896 100.5401 259.5940 13.10371536211900
